*******************************************************************************
JPL/HORIZONS                2340 Hathor (1976 UA)          2023-Sep-04 11:17:22
Rec #:    2340 (+COV) Soln.date: 2022-Dec-20_16:03:51    # obs: 572 (1976-2021)
 
IAU76/J2000 helio. ecliptic osc. elements (au, days, deg., period=Julian yrs):
 
  EPOCH=  2458035.5 ! 2017-Oct-09.00 (TDB)         Residual RMS= .24504
   EC= .4499237034040341   QR= .4641865066000718   TP= 2458010.4259981923
   OM= 211.4332875833366   W=  39.98067659897939   IN= 5.856707446498721
   A= .8438584055931779    MA= 31.88037018616387   ADIST= 1.223530304586284
   PER= .7752              N= 1.27145122           ANGMOM= .01411238
   DAN= .50049             DDN= 1.02716            L= 251.2663997
   B= 3.7592524            MOID= .00689108         TP= 2017-Sep-13.9259981923
 
Asteroid physical parameters (km, seconds, rotational period in hours):
   GM= n.a.                RAD= .150               ROTPER= 3.35
   H= 20.43                G= .150                 B-V= .770
                           ALBEDO= n.a.            STYP= Sq

Asteroid non-gravitational force model (AMRAT= m^2/kg;A1,A2,A3=au/d^2;R0=au):
   AMRAT=  0.
   A1= 0.                  A2= -2.960055098811E-14 A3= 0.
 Non-standard or simulated/proxy model:
   ALN=  1.            NK=  0.       NM=  2.       NN=  5.093    R0=  1.

ASTEROID comments: 
1: soln ref.= JPL#62, PHA  OCC=0       radar( 4 delay, 3 Dop.)
2: source=ORB
*******************************************************************************

  

*******************************************************************************
Ephemeris / API_USER Mon Sep  4 11:17:22 2023 Pasadena, USA      / Horizons
*******************************************************************************
Target body name: 2340 Hathor (1976 UA)           {source: JPL#62}
Center body name: Solar System Barycenter (0)     {source: DE441}
Center-site name: BODY CENTER
*******************************************************************************
Start time      : A.D. 2023-Aug-12 00:00:00.0000 TDB
Stop  time      : A.D. 2023-Aug-13 00:00:00.0000 TDB
Step-size       : 2880 minutes
*******************************************************************************
Center geodetic : 0.0, 0.0, 0.0                   {E-lon(deg),Lat(deg),Alt(km)}
Center cylindric: 0.0, 0.0, 0.0                   {E-lon(deg),Dxy(km),Dz(km)}
Center radii    : (undefined)
Small perturbers: Yes                             {source: SB441-N16}
Output units    : KM-S
Calendar mode   : Mixed Julian/Gregorian
Output type     : GEOMETRIC cartesian states
Output format   : 2 (position and velocity)
Reference frame : Ecliptic of J2000.0
*******************************************************************************
Initial IAU76/J2000 heliocentric ecliptic osculating elements (au, days, deg.):
  EPOCH=  2458035.5 ! 2017-Oct-09.00 (TDB)         Residual RMS= .24504        
   EC= .4499237034040341   QR= .4641865066000718   TP= 2458010.4259981923      
   OM= 211.4332875833366   W=  39.98067659897939   IN= 5.856707446498721       
  Equivalent ICRF heliocentric cartesian coordinates (au, au/d):
   X= 5.198793441991303E-01  Y=-3.130860774668410E-01  Z=-7.517292372224713E-02
  VX= 1.990645465004869E-02 VY= 1.372739695124227E-02 VZ= 5.694655463234421E-03
Asteroid physical parameters (km, seconds, rotational period in hours):        
   GM= n.a.                RAD= .150               ROTPER= 3.35                
   H= 20.43                G= .150                 B-V= .770                   
                           ALBEDO= n.a.            STYP= Sq                    
Asteroid non-gravitational force model (AMRAT= m^2/kg;A1,A2,A3=au/d^2;R0=au):  
   AMRAT=  0.                                                                  
   A1= 0.                  A2= -2.960055098811E-14 A3= 0.                      
 Non-standard or simulated/proxy model:                                        
   ALN=  1.            NK=  0.       NM=  2.       NN=  5.093    R0=  1.       
*******************************************************************************
JDTDB
   X     Y     Z
   VX    VY    VZ
*******************************************************************************
$$SOE
2460168.500000000 = A.D. 2023-Aug-12 00:00:00.0000 TDB 
 X =-2.983027833365932E+06 Y = 1.740225046507382E+08 Z =-1.534456218701966E+07
 VX=-2.080052814027266E+01 VY=-5.691080149029097E+00 VZ=-6.118181057672840E-01
$$EOE
*******************************************************************************
 
TIME

  Barycentric Dynamical Time ("TDB" or T_eph) output was requested. This
continuous coordinate time is equivalent to the relativistic proper time
of a clock at rest in a reference frame co-moving with the solar system
barycenter but outside the system's gravity well. It is the independent
variable in the solar system relativistic equations of motion.

  TDB runs at a uniform rate of one SI second per second and is independent
of irregularities in Earth's rotation.
 
CALENDAR SYSTEM

  Mixed calendar mode was active such that calendar dates after AD 1582-Oct-15
(if any) are in the modern Gregorian system. Dates prior to 1582-Oct-5 (if any)
are in the Julian calendar system, which is automatically extended for dates
prior to its adoption on 45-Jan-1 BC.  The Julian calendar is useful for
matching historical dates. The Gregorian calendar more accurately corresponds
to the Earth's orbital motion and seasons. A "Gregorian-only" calendar mode is
available if such physical events are the primary interest.

REFERENCE FRAME AND COORDINATES

  Ecliptic at the standard reference epoch

    Reference epoch: J2000.0
    X-Y plane: adopted Earth orbital plane at the reference epoch
               Note: IAU76 obliquity of 84381.448 arcseconds wrt ICRF X-Y plane
    X-axis   : ICRF
    Z-axis   : perpendicular to the X-Y plane in the directional (+ or -) sense
               of Earth's north pole at the reference epoch.

  Symbol meaning:

    JDTDB    Julian Day Number, Barycentric Dynamical Time
      X      X-component of position vector (km)
      Y      Y-component of position vector (km)
      Z      Z-component of position vector (km)
      VX     X-component of velocity vector (km/sec)                           
      VY     Y-component of velocity vector (km/sec)                           
      VZ     Z-component of velocity vector (km/sec)                           

ABERRATIONS AND CORRECTIONS

 Geometric state vectors have NO corrections or aberrations applied.

Computations by ...

    Solar System Dynamics Group, Horizons On-Line Ephemeris System
    4800 Oak Grove Drive, Jet Propulsion Laboratory
    Pasadena, CA  91109   USA

    General site: https://ssd.jpl.nasa.gov/
    Mailing list: https://ssd.jpl.nasa.gov/email_list.html
    System news : https://ssd.jpl.nasa.gov/horizons/news.html
    User Guide  : https://ssd.jpl.nasa.gov/horizons/manual.html
    Connect     : browser        https://ssd.jpl.nasa.gov/horizons/app.html#/x
                  API            https://ssd-api.jpl.nasa.gov/doc/horizons.html
                  command-line   telnet ssd.jpl.nasa.gov 6775
                  e-mail/batch   https://ssd.jpl.nasa.gov/ftp/ssd/hrzn_batch.txt
                  scripts        https://ssd.jpl.nasa.gov/ftp/ssd/SCRIPTS
    Author      : Jon.D.Giorgini@jpl.nasa.gov
*******************************************************************************
